OBJECT_NAME,OBJECT_ID,EPOCH,MEAN_MOTION,ECCENTRICITY,INCLINATION,RA_OF_ASC_NODE,ARG_OF_PERICENTER,MEAN_ANOMALY,EPHEMERIS_TYPE,CLASSIFICATION_TYPE,NORAD_CAT_ID,ELEMENT_SET_NO,REV_AT_EPOCH,BSTAR,MEAN_MOTION_DOT,MEAN_MOTION_DDOT
INTELSAT 21 (IS-21),2012-045A,2026-06-15T11:04:29.425152,1.00270663,.00012582,0.0181,337.3917,124.0904,270.3882,0,U,38749,999,5050,0,-.282E-5,0
ASTRA 2F,2012-051A,2026-06-15T13:11:43.893312,1.00268938,.00014184,0.0669,258.1861,283.5906,308.1743,0,U,38778,999,4112,0,.152E-5,0
GSAT-10,2012-051B,2026-06-15T13:27:22.495392,1.00269980,.00077602,0.0848,263.0421,184.1082,101.5486,0,U,38779,999,5008,0,-.162E-5,0
INTELSAT 23 (IS-23),2012-057A,2026-06-15T10:11:57.999840,1.00274177,.00003521,0.0092,11.5076,68.7984,283.4031,0,U,38867,999,4993,0,-.282E-5,0
BEIDOU-2 G6,2012-059A,2026-06-15T08:19:39.465120,1.00272283,.00096031,4.4156,73.5391,324.3705,74.6716,0,U,38953,999,4989,0,-.176E-5,0
LUCH-5B,2012-061A,2026-06-14T23:17:40.848288,1.00272265,.0002552,10.4768,49.9003,149.9655,36.5384,0,U,38977,999,4958,0,-.141E-5,0
YAMAL 300K,2012-061B,2026-06-15T12:13:12.300960,1.00268641,.0001376,0.0138,283.9782,326.4581,19.6132,0,U,38978,999,4961,0,.73E-6,0
STAR ONE C3,2012-062A,2026-06-15T10:59:37.391424,1.00271221,.00021308,0.0144,297.5947,160.0298,256.0403,0,U,38991,999,4974,0,-.246E-5,0
EUTELSAT 21B,2012-062B,2026-06-15T13:09:51.571584,1.00274284,.00030796,0.0668,8.4060,75.2249,39.2670,0,U,38992,999,4981,0,.133E-5,0
ECHOSTAR 16,2012-065A,2026-06-15T11:03:29.520576,1.00270712,.0002176,0.0232,18.7871,66.8511,282.4865,0,U,39008,999,4962,0,0,0
ZHONGXING-12,2012-067A,2026-06-15T14:42:14.815008,1.00272167,.00027792,0.0360,87.7518,349.4670,134.7286,0,U,39017,999,4949,0,-.205E-5,0
EUTELSAT 70B,2012-069A,2026-06-15T14:47:43.821888,1.00271493,.00039537,0.0639,12.4212,64.4920,119.4023,0,U,39020,999,4949,0,-.41E-6,0
YAMAL 402,2012-070A,2026-06-15T13:19:20.663328,1.00270674,.00036036,1.2612,84.1787,359.9247,74.4658,0,U,39022,999,4938,0,.88E-6,0
SKYNET 5D,2012-075A,2026-06-15T14:20:28.571424,1.00269587,.00034339,0.0674,346.7985,106.2566,78.7206,0,U,39034,999,4914,0,.102E-5,0
MEXSAT 3,2012-075B,2026-06-15T12:30:55.305216,1.00268303,.00011512,0.0154,57.3101,13.4789,265.9466,0,U,39035,999,703,0,-.23E-6,0
TDRS 11,2013-004A,2026-06-15T12:04:38.653824,1.00268894,.00055228,3.5183,31.2340,19.8302,219.4817,0,U,39070,999,4667,0,.79E-6,0
AMAZONAS 3,2013-006A,2026-06-15T11:03:37.008864,1.00272916,.0001804,0.0391,220.0262,270.5838,238.0335,0,U,39078,999,4489,0,-.28E-5,0
AZERSPACE 1,2013-006B,2026-06-15T13:16:43.413600,1.00269162,.00011799,0.0175,359.0496,115.1757,34.7805,0,U,39079,999,4879,0,.136E-5,0
SBIRS GEO-2 (USA 241),2013-011A,2026-06-15T12:49:23.534688,1.00271355,.00021727,4.4861,52.5090,23.5860,330.2664,0,U,39120,999,4851,0,-.287E-5,0
EUTELSAT 117 WEST A,2013-012A,2026-06-15T12:30:17.864640,1.00270875,.00026223,0.0133,0.8746,83.1311,250.5660,0,U,39122,999,4841,0,-.1E-6,0
ANIK G1,2013-014A,2026-06-15T12:33:02.601792,1.00270634,.00014691,0.0173,7.1657,69.7495,267.8360,0,U,39127,999,4823,0,-.71E-6,0
ZHONGXING-11,2013-020A,2026-06-15T16:15:59.359104,1.00269831,.00020021,0.0533,63.2622,16.6903,165.9150,0,U,39157,999,4788,0,-.288E-5,0
EUTELSAT 7B,2013-022A,2026-06-15T06:14:58.667136,1.00272408,.00046244,0.0165,2.6070,44.5714,317.1248,0,U,39163,999,4792,0,.52E-6,0
WGS F5 (USA 243),2013-024A,2026-06-15T11:05:59.281152,1.00264369,.00005627,0.0234,358.0417,317.5455,62.1483,0,U,39168,999,4715,0,0,0
SES-6,2013-026A,2026-06-15T09:26:44.867040,1.00269815,.00024625,0.0186,3.9793,96.2598,264.6195,0,U,39172,999,4770,0,-.258E-5,0
IRNSS-1A,2013-034A,2026-06-09T14:20:49.169184,1.00272948,.00174117,35.7049,63.9797,184.2474,279.8453,0,U,39199,999,4729,0,.7E-6,0
MUOS-2,2013-036A,2026-06-15T12:12:38.850336,1.00272904,.00509297,4.9920,45.5301,177.5497,35.8253,0,U,39206,999,4717,0,-.14E-6,0
ALPHASAT,2013-038A,2026-06-14T23:29:28.036608,1.00270020,.00016374,2.9985,1.3785,97.5348,181.5670,0,U,39215,999,4399,0,.137E-5,0
INSAT-3D,2013-038B,2026-06-15T14:44:56.440896,1.00269836,.00005505,1.9222,82.5599,308.9364,223.1525,0,U,39216,999,4706,0,-.338E-5,0
WGS F6 (USA 244),2013-041A,2026-06-15T11:30:38.824992,1.00269784,.00002073,0.0172,2.3683,256.8148,42.0482,0,U,39222,999,4604,0,.92E-6,0
ES'HAIL 1,2013-044A,2026-06-14T11:30:52.712064,1.00273168,.0002036,0.0540,20.6505,59.8985,20.4321,0,U,39233,999,4660,0,.151E-5,0
GSAT-7,2013-044B,2026-06-15T11:42:03.823200,1.00270281,.00031846,0.0800,94.9790,189.7141,228.5639,0,U,39234,999,4524,0,-.74E-6,0
